ONEWEB-0415             
1 51624U 22012C   24255.46866868 -.00000467  00000+0 -13728-2 0  9996
2 51624  87.8987 164.3731 0002140  78.0503 282.0864 13.10372172124983
ONEWEB-0416             
1 51625U 22012D   24255.48028554 -.00000475  00000+0 -13975-2 0  9994
2 51625  87.8995 164.3707 0001886  71.1612 288.9719 13.10373833125022
ONEWEB-0422             
1 51626U 22012E   24255.59188054  .00000000  00000+0 -32834-4 0  9999
2 51626  87.9147 134.0472 0001313 103.4192 256.7085 13.17647176129050
ONEWEB-0423             
1 51627U 22012F   24255.35762064  .00000055  00000+0  10934-3 0  9998
2 51627  87.9149 134.0959 0001664  75.8824 284.2492 13.17651208128919
ONEWEB-0428             
1 51629U 22012H   24255.47033242 -.00000456  00000+0 -13431-2 0  9993
2 51629  87.8991 164.3700 0001864  83.1932 276.9408 13.10373115124988
ONEWEB-0431             
1 51630U 22012J   24255.51669265  .00000629  00000+0  17643-2 0  9999
2 51630  87.8981 164.3524 0002239  91.2076 268.9308 13.10372104125044
